[{"OBJECT_NAME":"STARLINK-30951","OBJECT_ID":"2023-183C","EPOCH":"2026-03-09T07:01:35.397984","MEAN_MOTION":15.26744627,"ECCENTRICITY":0.00016018,"INCLINATION":43.0011,"RA_OF_ASC_NODE":43.8572,"ARG_OF_PERICENTER":267.1892,"MEAN_ANOMALY":92.8776,"EPHEMERIS_TYPE":0,"CLASSIFICATION_TYPE":"U","NORAD_CAT_ID":58439,"ELEMENT_SET_NO":999,"REV_AT_EPOCH":12667,"BSTAR":-4.7391944e-5,"MEAN_MOTION_DOT":-1.531e-5,"MEAN_MOTION_DDOT":0},{"OBJECT_NAME":"NUSAT-44 (MARIA MITCHELL)","OBJECT_ID":"2024-043AA","EPOCH":"2026-03-09T22:12:18.524160","MEAN_MOTION":15.29764305,"ECCENTRICITY":0.0007331,"INCLINATION":97.5299,"RA_OF_ASC_NODE":207.7691,"ARG_OF_PERICENTER":214.9017,"MEAN_ANOMALY":145.1743,"EPHEMERIS_TYPE":0,"CLASSIFICATION_TYPE":"U","NORAD_CAT_ID":59122,"ELEMENT_SET_NO":999,"REV_AT_EPOCH":11209,"BSTAR":0.00061063193,"MEAN_MOTION_DOT":0.00017562,"MEAN_MOTION_DDOT":0}]
